SARAL                   
1 39086U 13009A   22300.51411806  .00000062  00000+0  39441-4 0  9994
2 39086  98.5477 124.2148 0000459 152.1022 208.0186 14.32039846505387
GAOFEN 1                
1 39150U 13018A   22300.58454176  .00000613  00000+0  95413-4 0  9993
2 39150  98.0609   6.8568 0021372 216.0138 143.9635 14.76432549512230
VNREDSAT 1              
1 39160U 13021B   22300.50959164  .00000505  00000+0  10757-3 0  9994
2 39160  98.0680  13.0670 0001256  72.0866 288.0474 14.62985429505926
ARIRANG-5 (KOMPSAT-5)   
1 39227U 13042A   22300.54322645  .00001459  00000+0  10854-3 0  9990
2 39227  97.6301 124.5780 0001002  72.6627  12.2831 15.04502281504140
SKYSAT-A                
1 39418U 13066C   22300.45453848  .00001683  00000+0  13792-3 0  9991
2 39418  97.5348   8.3251 0029993 168.7424 191.4478 15.00245919488444
DUBAISAT-2              
1 39419U 13066D   22300.48352994  .00001524  00000+0  14280-3 0  9992
2 39419  97.4351 325.7797 0013095 188.6654 171.4356 14.95370823486921
GPM-CORE                
1 39574U 14009C   22300.52407205  .00011960  00000+0  17135-3 0  9990
2 39574  64.9992  98.7708 0007817 269.3252  90.6999 15.56500577492165
SENTINEL-1A             
1 39634U 14016A   22300.31629147 -.00000221  00000+0 -37196-4 0  9993
2 39634  98.1821 306.0013 0001303  88.7705 271.3646 14.59196321456253
KAZEOSAT 1              
1 39731U 14024A   22300.32599974  .00000149  00000+0  58863-4 0  9996
2 39731  98.4546  14.6506 0001374  84.4112 275.7241 14.42011066447095
ALOS-2                  
1 39766U 14029A   22300.55946508 -.00000080  00000+0 -37833-5 0  9994
2 39766  97.9224  35.7944 0001501  93.9239 266.2142 14.79471080455165
KAZEOSAT 2              
1 40010U 14033A   22300.56773090  .00000472  00000+0  65690-4 0  9992
2 40010  97.7018 181.0062 0014920  12.6837 347.4756 14.82095997452012
HODOYOSHI-4             
1 40011U 14033B   22300.53740829  .00000903  00000+0  11992-3 0  9998
2 40011  97.6559 168.1795 0026737   8.8053 351.3633 14.81872138451653
DEIMOS-2                
1 40013U 14033D   22300.52931199  .00001195  00000+0  14414-3 0  9997
2 40013  97.7434 194.1946 0002448  65.6600 294.4865 14.85607356452801
HODOYOSHI-3             
1 40015U 14033F   22300.33177663  .00000635  00000+0  91489-4 0  9992
2 40015  97.6254 147.6379 0037538  34.6121 325.7523 14.79056578450823
SPOT 7                  
1 40053U 14034A   22300.55614369  .00000258  00000+0  65283-4 0  9992
2 40053  98.1591   5.7294 0001085  86.7353 273.3974 14.58570956443343
SKYSAT-B                
1 40072U 14037D   22300.38143087  .00000693  00000+0  94907-4 0  9999
2 40072  98.3873 175.2868 0005074 249.1401 110.9267 14.81891467448862
WORLDVIEW-3 (WV-3)      
1 40115U 14048A   22300.51143096  .00000819  00000+0  10190-3 0  9995
2 40115  97.8435  13.4905 0003028 101.2179 258.9376 14.85147132444733
GAOFEN 2                
1 40118U 14049A   22300.55304757  .00000848  00000+0  11680-3 0  9993
2 40118  97.7489   4.6574 0005483 229.7534 130.3203 14.80715364442649
YAOGAN 21               
1 40143U 14053A   22300.56366100  .00006701  00000+0  28157-3 0  9998
2 40143  97.3376   5.1150 0016379 120.1387  15.8872 15.23631317452665
YAOGAN 22               
1 40275U 14063A   22300.52960167 -.00000008  00000+0  10000-3 0  9997
2 40275 100.5852  60.8617 0005764 309.1625  50.8980 13.15445344385119
ASNARO                  
1 40298U 14070A   22300.53277289  .00008496  00000+0  40357-3 0  9993
2 40298  97.4601  21.1304 0002197 160.6639 329.4910 15.19472335442258
HODOYOSHI-1             
1 40299U 14070B   22300.54208491  .00006318  00000+0  23136-3 0  9991
2 40299  97.2303   4.7801 0012640  35.3059  77.0739 15.28290499443225
QSAT-EOS                
1 40301U 14070D   22300.54459047  .00025787  00000+0  62594-3 0  9992
2 40301  97.1942   5.5758 0017343 356.5774 110.5069 15.40850343443801
YAOGAN 23               
1 40305U 14071A   22300.56261858  .00008270  00000+0  35290-3 0  9991
2 40305  97.6211 253.6310 0002598  73.3894  46.7116 15.23170405440650
YAOGAN 24               
1 40310U 14072A   22300.34671778  .00000724  00000+0  11162-3 0  9998
2 40310  97.9906  59.1769 0016749 207.8950 152.1364 14.76299262427693
CBERS 4                 
1 40336U 14079A   22300.57402288  .00001548  00000+0  55374-3 0  9994
2 40336  98.4723  12.1254 0001539  83.8495 276.2903 14.35455495413362
RESURS P2               
1 40360U 14087A   22300.56497767  .00006743  00000+0  18193-3 0  9995
2 40360  97.2014  22.8938 0008322 342.7528 130.6216 15.38073223438554
YAOGAN 26               
1 40362U 14088A   22300.52152786  .00006730  00000+0  28380-3 0  9998
2 40362  97.1320 343.9254 0008309   9.9912 126.0528 15.23583779436130
SMAP                    
1 40376U 15003A   22300.46363720  .00000372  00000+0  81059-4 0  9995
2 40376  98.1296 305.3446 0001861  88.7518 271.3897 14.63351631413294
KOMPSAT-3A              
1 40536U 15014A   22300.41789176  .00003755  00000+0  22512-3 0  9993
2 40536  97.5440 241.3306 0001780 353.6067 152.6064 15.11567617418988
SENTINEL-2A             
1 40697U 15028A   22300.50126441 -.00001015  00000+0 -37080-3 0  9991
2 40697  98.5649  13.3705 0001041  77.7364 282.3974 14.30806558383737
GAOFEN 8                
1 40701U 15030A   22300.46534531  .00008432  00000+0  35779-3 0  9999
2 40701  97.5792  76.1731 0001881 325.0737 121.7484 15.23356162408488
CARBONITE 1 (CBNT-1)    
1 40718U 15032D   22300.49990126  .00001034  00000+0  15839-3 0  9994
2 40718  97.7173 158.9974 0015669 311.9046  48.0820 14.75619097392892
YAOGAN 27               
1 40878U 15040A   22300.52010417 -.00000004  00000+0  10000-3 0  9992
2 40878 100.1197 326.6908 0008818  44.7770 315.4056 13.15982453344406
GAOFEN 9-01             
1 40894U 15047A   22300.56085276  .00000662  00000+0  10165-3 0  9997
2 40894  97.8050   6.5652 0033648 140.3802 219.9883 14.76399444383670
LAPAN-A2                
1 40931U 15052B   22300.47600076  .00001058  00000+0  57696-4 0  9997
2 40931   5.9967 307.2408 0013122 243.1060 116.7750 14.76898263382895
YAOGAN 28               
1 41026U 15064A   22300.53231600  .00006404  00000+0  27145-3 0  9991
2 41026  97.5727  84.2889 0006950 201.4554 221.3340 15.23472723388349
YAOGAN 29               
1 41038U 15069A   22300.50906491  .00000396  00000+0  58140-4 0  9997
2 41038  98.0619 301.3604 0002242  63.7061 296.4384 14.80965363373836
KENT RIDGE 1            
1 41167U 15077B   22300.43951398  .00002568  00000+0  11224-3 0  9991
2 41167  14.9773 326.7340 0010774  40.1396 357.3759 15.10438731379235
TELEOS 1                
1 41169U 15077D   22300.34105829  .00005963  00000+0  28058-3 0  9998
2 41169  14.9847 292.2574 0009098 100.0046 260.1313 15.14118206379536
GAOFEN 4                
1 41194U 15083A   22299.82273885 -.00000323  00000+0  00000+0 0  9990
2 41194   0.0832 285.2375 0006227 274.8067 237.0475  1.00274314 25194
JASON-3                 
1 41240U 16002A   22300.50259920 -.00000033  00000+0  12197-3 0  9998
2 41240  66.0444  14.8035 0007852 265.2616  94.7502 12.80929217316961
SENTINEL-3A             
1 41335U 16011A   22300.46573875  .00000103  00000+0  60439-4 0  9996
2 41335  98.6241   5.8582 0001088  94.8311 265.2994 14.26739875348597
ZIYUAN 3-2 (ZY 3-2)     
1 41556U 16033A   22300.42686343  .00005258  00000+0  23941-3 0  9998
2 41556  97.5239   9.1380 0002250  96.4664  85.2405 15.21124036355960
NUSAT-1 (FRESCO)        
1 41557U 16033B   22300.41253090  .00018123  00000+0  48083-3 0  9996
2 41557  97.3910  38.6313 0009276 263.8140 160.6474 15.38318008357645
NUSAT-2 (BATATA)        
1 41558U 16033C   22300.47314801  .00018081  00000+0  45109-3 0  9990
2 41558  97.4134  45.1506 0008856 250.0591 172.5073 15.40211655357946
CARTOSAT-2C             
1 41599U 16040A   22300.54387338  .00004152  00000+0  19984-3 0  9992
2 41599  97.4724 358.8798 0014436  82.6141  53.3220 15.19234420351983
SKYSAT-C1               
1 41601U 16040C   22299.82845258  .00008377  00000+0  22564-3 0  9995
2 41601  97.1437  11.8691 0001621 122.2293 237.9109 15.38076411354191
LAPAN-A3                
1 41603U 16040E   22300.55578869  .00001700  00000+0  79341-4 0  9990
2 41603  97.1945 331.7670 0014638  59.9460  43.4883 15.21043598352113
BIROS                   
1 41604U 16040F   22300.43404671  .00004329  00000+0  17407-3 0  9991
2 41604  97.1957 339.8521 0012268  34.1738 326.0287 15.25357164352570
GAOFEN 3                
1 41727U 16049A   22300.35579448  .00000067  00000+0  33567-4 0  9993
2 41727  98.4101 306.7658 0000594  77.6232 282.5026 14.42217579327106
SKYSAT-C4               
1 41771U 16058B   22299.78978927  .00007956  00000+0  21471-3 0  9995
2 41771  97.1040   1.0702 0000610 282.7372  77.3805 15.38030333341143
SKYSAT-C5               
1 41772U 16058C   22300.54323737  .00005422  00000+0  20209-3 0  9990
2 41772  97.2502   0.5205 0001921  91.3220 268.8240 15.27841978339939
SKYSAT-C2               
1 41773U 16058D   22299.70672985  .00007492  00000+0  20243-3 0  9995
2 41773  97.1055   1.3868 0000282  45.3199 314.8070 15.38015195341155
SKYSAT-C3               
1 41774U 16058E   22300.40911365  .00013985  00000+0  31253-3 0  9991
2 41774  97.1043   3.2103 0000397  78.2815 281.8478 15.43616810341335
ALSAT 1B                
1 41785U 16059C   22300.54091292  .00000286  00000+0  55495-4 0  9992
2 41785  97.8955 340.7058 0010110 158.2610 201.9036 14.70126658325228
PATHFINDER 1            
1 41787U 16059E   22300.39148960  .00000472  00000+0  97974-4 0  9997
2 41787  97.8982 338.9924 0031285 107.9754 252.4864 14.64138435325046
SCATSAT 1               
1 41790U 16059H   22299.70775530  .00000150  00000+0  49071-4 0  9990
2 41790  98.3052 342.1087 0005720 151.2954 208.8556 14.50943358322100
GOKTURK 1A              
1 41875U 16073A   22300.49989621  .00000365  00000+0  80660-4 0  9994
2 41875  98.1148 193.3220 0001349  81.6356 278.4988 14.62816161314587
RESOURCESAT-2A          
1 41877U 16074A   22300.48999524  .00000105  00000+0  68033-4 0  9991
2 41877  98.7082  14.0680 0000703   2.5497 357.5689 14.21634303305524
